{
  "type": "FeatureCollection",
  "features": [
    {
      "type": "Feature",
      "properties": {
        "norad_id": 33376,
        "name": "GALAXY 19 (G-19)",
        "group": "intelsat",
        "lat": -0.012481737942712314,
        "lon": -54.53107735253319,
        "alt_km": 35774.841980281446,
        "timestamp": "2025-12-09T21:34:11.074742+00:00",
        "meta_object_name": "GALAXY 19 (G-19)",
        "meta_object_id": "2008-045A",
        "meta_epoch": "2025-12-09T13:06:40.336416",
        "meta_mean_motion": 1.00278002,
        "meta_eccentricity": 0.00031023,
        "meta_inclination": 0.0187,
        "meta_ra_of_asc_node": 316.6753,
        "meta_arg_of_pericenter": 305.1983,
        "meta_mean_anomaly": 276.3406,
        "meta_ephemeris_type": 0,
        "meta_classification_type": "U",
        "meta_norad_cat_id": 33376,
        "meta_element_set_no": 999,
        "meta_rev_at_epoch": 6300,
        "meta_bstar": 0,
        "meta_mean_motion_dot": -1.38e-06,
        "meta_mean_motion_ddot": 0,
        "tle_line1": "1 33376U 08045A   25343.54630019 -.00000138  00000+0  00000+0 0  9995",
        "tle_line2": "2 33376   0.0187 316.6753 0003102 305.1983 276.3406  1.00278002 63003"
      },
      "geometry": {
        "type": "Point",
        "coordinates": [
          -54.53107735253319,
          -0.012481737942712314
        ]
      }
    },
    {
      "type": "Feature",
      "properties": {
        "norad_id": 35493,
        "name": "FM-5",
        "group": "intelsat",
        "lat": 0.004171869642981879,
        "lon": -43.71045774506057,
        "alt_km": 35788.410834330265,
        "timestamp": "2025-12-09T21:34:11.074754+00:00",
        "meta_object_name": "FM-5",
        "meta_object_id": "2009-034A",
        "meta_epoch": "2025-12-09T12:27:37.559808",
        "meta_mean_motion": 1.00270693,
        "meta_eccentricity": 6.254e-05,
        "meta_inclination": 0.0203,
        "meta_ra_of_asc_node": 288.1902,
        "meta_arg_of_pericenter": 248.5035,
        "meta_mean_anomaly": 2.5822,
        "meta_ephemeris_type": 0,
        "meta_classification_type": "U",
        "meta_norad_cat_id": 35493,
        "meta_element_set_no": 999,
        "meta_rev_at_epoch": 4474,
        "meta_bstar": 0,
        "meta_mean_motion_dot": -1.98e-06,
        "meta_mean_motion_ddot": 0,
        "tle_line1": "1 35493U 09034A   25343.51918472 -.00000198  00000+0  00000+0 0  9991",
        "tle_line2": "2 35493   0.0203 288.1902 0000625 248.5035   2.5822  1.00270693 44747"
      },
      "geometry": {
        "type": "Point",
        "coordinates": [
          -43.71045774506057,
          0.004171869642981879
        ]
      }
    },
    {
      "type": "Feature",
      "properties": {
        "norad_id": 36097,
        "name": "INTELSAT 14 (IS-14)",
        "group": "intelsat",
        "lat": 0.005875801116315633,
        "lon": -2.539165096630532,
        "alt_km": 35786.82944803761,
        "timestamp": "2025-12-09T21:34:11.074766+00:00",
        "meta_object_name": "INTELSAT 14 (IS-14)",
        "meta_object_id": "2009-064A",
        "meta_epoch": "2025-12-09T11:38:48.751872",
        "meta_mean_motion": 1.0027037,
        "meta_eccentricity": 0.00026709,
        "meta_inclination": 0.0101,
        "meta_ra_of_asc_node": 349.1482,
        "meta_arg_of_pericenter": 276.7938,
        "meta_mean_anomaly": 302.243,
        "meta_ephemeris_type": 0,
        "meta_classification_type": "U",
        "meta_norad_cat_id": 36097,
        "meta_element_set_no": 999,
        "meta_rev_at_epoch": 5870,
        "meta_bstar": 0,
        "meta_mean_motion_dot": -2.71e-06,
        "meta_mean_motion_ddot": 0,
        "tle_line1": "1 36097U 09064A   25343.48528648 -.00000271  00000+0  00000+0 0  9995",
        "tle_line2": "2 36097   0.0101 349.1482 0002670 276.7938 302.2430  1.00270370 58701"
      },
      "geometry": {
        "type": "Point",
        "coordinates": [
          -2.539165096630532,
          0.005875801116315633
        ]
      }
    },
    {
      "type": "Feature",
      "properties": {
        "norad_id": 36106,
        "name": "INTELSAT 15 (IS-15)",
        "group": "intelsat",
        "lat": -0.002126175111688195,
        "lon": 127.5547248355946,
        "alt_km": 35794.326169979286,
        "timestamp": "2025-12-09T21:34:11.074778+00:00",
        "meta_object_name": "INTELSAT 15 (IS-15)",
        "meta_object_id": "2009-067A",
        "meta_epoch": "2025-12-09T13:58:42.849696",
        "meta_mean_motion": 1.00270775,
        "meta_eccentricity": 0.00024792,
        "meta_inclination": 0.0282,
        "meta_ra_of_asc_node": 286.1309,
        "meta_arg_of_pericenter": 340.649,
        "meta_mean_anomaly": 106.6185,
        "meta_ephemeris_type": 0,
        "meta_classification_type": "U",
        "meta_norad_cat_id": 36106,
        "meta_element_set_no": 999,
        "meta_rev_at_epoch": 3932,
        "meta_bstar": 0,
        "meta_mean_motion_dot": -1.83e-06,
        "meta_mean_motion_ddot": 0,
        "tle_line1": "1 36106U 09067A   25343.58244039 -.00000183  00000+0  00000+0 0  9991",
        "tle_line2": "2 36106   0.0282 286.1309 0002479 340.6490 106.6185  1.00270775 39320"
      },
      "geometry": {
        "type": "Point",
        "coordinates": [
          127.5547248355946,
          -0.002126175111688195
        ]
      }
    },
    {
      "type": "Feature",
      "properties": {
        "norad_id": 36131,
        "name": "DIRECTV 12",
        "group": "intelsat",
        "lat": -0.015641916708664258,
        "lon": -60.296991876410964,
        "alt_km": 35784.15437095618,
        "timestamp": "2025-12-09T21:34:11.074789+00:00",
        "meta_object_name": "DIRECTV 12",
        "meta_object_id": "2009-075A",
        "meta_epoch": "2025-12-09T10:42:05.901696",
        "meta_mean_motion": 1.00272635,
        "meta_eccentricity": 5.415e-05,
        "meta_inclination": 0.0402,
        "meta_ra_of_asc_node": 141.0164,
        "meta_arg_of_pericenter": 200.367,
        "meta_mean_anomaly": 154.8575,
        "meta_ephemeris_type": 0,
        "meta_classification_type": "U",
        "meta_norad_cat_id": 36131,
        "meta_element_set_no": 999,
        "meta_rev_at_epoch": 4465,
        "meta_bstar": 0,
        "meta_mean_motion_dot": -1.01e-06,
        "meta_mean_motion_ddot": 0,
        "tle_line1": "1 36131U 09075A   25343.44590164 -.00000101  00000+0  00000+0 0  9996",
        "tle_line2": "2 36131   0.0402 141.0164 0000541 200.3670 154.8575  1.00272635 44657"
      },
      "geometry": {
        "type": "Point",
        "coordinates": [
          -60.296991876410964,
          -0.015641916708664258
        ]
      }
    },
    {
      "type": "Feature",
      "properties": {
        "norad_id": 36397,
        "name": "INTELSAT 16 (IS-16)",
        "group": "intelsat",
        "lat": 0.001944672018110521,
        "lon": -33.75383263762906,
        "alt_km": 35782.258673431985,
        "timestamp": "2025-12-09T21:34:11.074801+00:00",
        "meta_object_name": "INTELSAT 16 (IS-16)",
        "meta_object_id": "2010-006A",
        "meta_epoch": "2025-12-09T12:32:17.671200",
        "meta_mean_motion": 1.00270281,
        "meta_eccentricity": 0.00022839,
        "meta_inclination": 0.0146,
        "meta_ra_of_asc_node": 310.5057,
        "meta_arg_of_pericenter": 312.0313,
        "meta_mean_anomaly": 287.8475,
        "meta_ephemeris_type": 0,
        "meta_classification_type": "U",
        "meta_norad_cat_id": 36397,
        "meta_element_set_no": 999,
        "meta_rev_at_epoch": 5775,
        "meta_bstar": 0,
        "meta_mean_motion_dot": -2.42e-06,
        "meta_mean_motion_ddot": 0,
        "tle_line1": "1 36397U 10006A   25343.52242675 -.00000242  00000+0  00000+0 0  9992",
        "tle_line2": "2 36397   0.0146 310.5057 0002283 312.0313 287.8475  1.00270281 57756"
      },
      "geometry": {
        "type": "Point",
        "coordinates": [
          -33.75383263762906,
          0.001944672018110521
        ]
      }
    },
    {
      "type": "Feature",
      "properties": {
        "norad_id": 37185,
        "name": "XM-5",
        "group": "intelsat",
        "lat": 0.0010806858891551096,
        "lon": -72.75743473569365,
        "alt_km": 35791.372213105635,
        "timestamp": "2025-12-09T21:34:11.074813+00:00",
        "meta_object_name": "XM-5",
        "meta_object_id": "2010-053A",
        "meta_epoch": "2025-12-09T13:06:27.840384",
        "meta_mean_motion": 1.0026927,
        "meta_eccentricity": 0.00015567,
        "meta_inclination": 0.0636,
        "meta_ra_of_asc_node": 272.6745,
        "meta_arg_of_pericenter": 240.0284,
        "meta_mean_anomaly": 7.2558,
        "meta_ephemeris_type": 0,
        "meta_classification_type": "U",
        "meta_norad_cat_id": 37185,
        "meta_element_set_no": 999,
        "meta_rev_at_epoch": 5558,
        "meta_bstar": 0,
        "meta_mean_motion_dot": -2e-07,
        "meta_mean_motion_ddot": 0,
        "tle_line1": "1 37185U 10053A   25343.54615556 -.00000020  00000+0  00000+0 0  9998",
        "tle_line2": "2 37185   0.0636 272.6745 0001556 240.0284   7.2558  1.00269270 55588"
      },
      "geometry": {
        "type": "Point",
        "coordinates": [
          -72.75743473569365,
          0.0010806858891551096
        ]
      }
    }
  ]
}